[{"OBJECT_NAME":"STARLINK-3712","OBJECT_ID":"2022-029C","EPOCH":"2026-03-09T08:23:12.632928","MEAN_MOTION":15.0883664,"ECCENTRICITY":0.00013514,"INCLINATION":53.2167,"RA_OF_ASC_NODE":90.6486,"ARG_OF_PERICENTER":96.0054,"MEAN_ANOMALY":264.1092,"EPHEMERIS_TYPE":0,"CLASSIFICATION_TYPE":"U","NORAD_CAT_ID":52090,"ELEMENT_SET_NO":999,"REV_AT_EPOCH":22060,"BSTAR":3.2131688e-5,"MEAN_MOTION_DOT":2.23e-6,"MEAN_MOTION_DDOT":0},{"OBJECT_NAME":"OBJECT K","OBJECT_ID":"2017-042K","EPOCH":"2026-03-09T21:28:20.621568","MEAN_MOTION":15.07994228,"ECCENTRICITY":0.00097557,"INCLINATION":97.4104,"RA_OF_ASC_NODE":233.8721,"ARG_OF_PERICENTER":49.2775,"MEAN_ANOMALY":310.9299,"EPHEMERIS_TYPE":0,"CLASSIFICATION_TYPE":"U","NORAD_CAT_ID":42834,"ELEMENT_SET_NO":999,"REV_AT_EPOCH":47201,"BSTAR":0.00042776846,"MEAN_MOTION_DOT":6.528e-5,"MEAN_MOTION_DDOT":0}]
